CTC1_L_00544001-01
1 10000U 26576PI  26075.70038194  .00000000  00000+0  00000-0 0  9998
2 10000  97.4000   0.0000 0000000   0.0000   0.0000 15.55740824    15
CTC1_L_00544002-01
1 10001U 25241GC  26075.70038194  .00000000  00000+0  00000-0 0  9997
2 10001  97.4000  12.0000 0000000   0.0000  48.0000 15.55740824    11
CTC1_L_00544003-01
1 10002U 26115IG  26075.70038194  .00000000  00000+0  00000-0 0  9999
2 10002  97.4000  24.0000 0000000   0.0000  96.0000 15.55740824    18
CTC1_L_00544004-01
1 10003U 23594BZ  26075.70038194  .00000000  00000+0  00000-0 0  9998
2 10003  97.4000  36.0000 0000000   0.0000 144.0000 15.55740824    16
CTC1_L_00544005-01
1 10004U 25380UT  26075.70038194  .00000000  00000+0  00000-0 0  9994
2 10004  97.4000  48.0000 0000000   0.0000 192.0000 15.55740824    13
CTC1_L_00544006-01
1 10005U 25471PX  26075.70038194  .00000000  00000+0  00000-0 0  9996
2 10005  97.4000  60.0000 0000000   0.0000 240.0000 15.55740824    12
CTC1_L_00544007-01
1 10006U 23391HY  26075.70038194  .00000000  00000+0  00000-0 0  9996
2 10006  97.4000  72.0000 0000000   0.0000 288.0000 15.55740824    18
CTC1_L_00544008-01
1 10007U 24391CM  26075.70038194  .00000000  00000+0  00000-0 0  9998
2 10007  97.4000  84.0000 0000000   0.0000 336.0000 15.55740824    16
CTC1_L_00544009-01
1 10008U 25694RA  26075.70038194  .00000000  00000+0  00000-0 0  9996
2 10008  97.4000  96.0000 0000000   0.0000  24.0000 15.55740824    14
CTC1_L_00544010-01
1 10009U 25480GB  26075.70038194  .00000000  00000+0  00000-0 0  9990
2 10009  97.4000 108.0000 0000000   0.0000  72.0000 15.55740824    12
CTC1_L_00544011-01
1 10010U 26413DQ  26075.70038194  .00000000  00000+0  00000-0 0  9999
2 10010  97.4000 120.0000 0000000   0.0000 120.0000 15.55740824    12
CTC1_L_00544012-01
1 10011U 25062LL  26075.70038194  .00000000  00000+0  00000-0 0  9999
2 10011  97.4000 132.0000 0000000   0.0000 168.0000 15.55740824    18
CTC1_L_00544013-01
1 10012U 25679EX  26075.70038194  .00000000  00000+0  00000-0 0  9994
2 10012  97.4000 144.0000 0000000   0.0000 216.0000 15.55740824    16
CTC1_L_00544014-01
1 10013U 25606NV  26075.70038194  .00000000  00000+0  00000-0 0  9995
2 10013  97.4000 156.0000 0000000   0.0000 264.0000 15.55740824    13
CTC1_L_00544015-01
1 10014U 25167XK  26075.70038194  .00000000  00000+0  00000-0 0  9998
2 10014  97.4000 168.0000 0000000   0.0000 312.0000 15.55740824    11
CTC1_L_00544016-01
1 10015U 25822EI  26075.70038194  .00000000  00000+0  00000-0 0  9997
2 10015  97.4000 180.0000 0000000   0.0000   0.0000 15.55740824    10
CTC1_L_00544017-01
1 10016U 22066GF  26075.70038194  .00000000  00000+0  00000-0 0  9995
2 10016  97.4000 192.0000 0000000   0.0000  48.0000 15.55740824    16
CTC1_L_00544018-01
1 10017U 26640QG  26075.70038194  .00000000  00000+0  00000-0 0  9998
2 10017  97.4000 204.0000 0000000   0.0000  96.0000 15.55740824    14
CTC1_L_00544019-01
1 10018U 22856AQ  26075.70038194  .00000000  00000+0  00000-0 0  9994
2 10018  97.4000 216.0000 0000000   0.0000 144.0000 15.55740824    12
CTC1_L_00544020-01
1 10019U 22879WV  26075.70038194  .00000000  00000+0  00000-0 0  9990
2 10019  97.4000 228.0000 0000000   0.0000 192.0000 15.55740824    19
CTC1_L_00544021-01
1 10020U 24340EZ  26075.70038194  .00000000  00000+0  00000-0 0  9997
2 10020  97.4000 240.0000 0000000   0.0000 240.0000 15.55740824    19
CTC1_L_00544022-01
1 10021U 25683AY  26075.70038194  .00000000  00000+0  00000-0 0  9999
2 10021  97.4000 252.0000 0000000   0.0000 288.0000 15.55740824    15
CTC1_L_00544023-01
1 10022U 26925AO  26075.70038194  .00000000  00000+0  00000-0 0  9990
2 10022  97.4000 264.0000 0000000   0.0000 336.0000 15.55740824    13
CTC1_L_00544024-01
1 10023U 24934ZK  26075.70038194  .00000000  00000+0  00000-0 0  9999
2 10023  97.4000 276.0000 0000000   0.0000  24.0000 15.55740824    11
CTC1_L_00544025-01
1 10024U 25982VP  26075.70038194  .00000000  00000+0  00000-0 0  9994
2 10024  97.4000 288.0000 0000000   0.0000  72.0000 15.55740824    18
CTC1_L_00544026-01
1 10025U 25838VO  26075.70038194  .00000000  00000+0  00000-0 0  9995
2 10025  97.4000 300.0000 0000000   0.0000 120.0000 15.55740824    18
CTC1_L_00544027-01
1 10026U 26974NK  26075.70038194  .00000000  00000+0  00000-0 0  9998
2 10026  97.4000 312.0000 0000000   0.0000 168.0000 15.55740824    14
CTC1_L_00544028-01
1 10027U 26832XM  26075.70038194  .00000000  00000+0  00000-0 0  9992
2 10027  97.4000 324.0000 0000000   0.0000 216.0000 15.55740824    12
CTC1_L_00544029-01
1 10028U 25692HT  26075.70038194  .00000000  00000+0  00000-0 0  9996
2 10028  97.4000 336.0000 0000000   0.0000 264.0000 15.55740824    19
CTC1_L_00544030-01
1 10029U 23116DM  26075.70038194  .00000000  00000+0  00000-0 0  9996
2 10029  97.4000 348.0000 0000000   0.0000 312.0000 15.55740824    17
